[{"CCSDS_OMM_VERS":"2.0","COMMENT":"GENERATED VIA SPACE-TRACK.ORG API","CREATION_DATE":"2017-08-15T07:09:05","ORIGINATOR":"18 SPCS","OBJECT_NAME":"UPSAT","OBJECT_ID":"1998-067LX","CENTER_NAME":"EARTH","REF_FRAME":"TEME","TIME_SYSTEM":"UTC","MEAN_ELEMENT_THEORY":"SGP4","EPOCH":"2017-08-15T00:29:21.498144","MEAN_MOTION":"15.57116459","ECCENTRICITY":"0.00050860","INCLINATION":"51.6394","RA_OF_ASC_NODE":"103.7846","ARG_OF_PERICENTER":"174.7481","MEAN_ANOMALY":"185.3566","EPHEMERIS_TYPE":"0","CLASSIFICATION_TYPE":"U","NORAD_CAT_ID":"42716","ELEMENT_SET_NO":"999","REV_AT_EPOCH":"1380","BSTAR":"0.00016747000000","MEAN_MOTION_DOT":"0.00011903","MEAN_MOTION_DDOT":"0.0000000000000","SEMIMAJOR_AXIS":"6774.144","PERIOD":"92.478","APOAPSIS":"399.454","PERIAPSIS":"392.563","OBJECT_TYPE":"PAYLOAD","RCS_SIZE":"SMALL","COUNTRY_CODE":"GREC","LAUNCH_DATE":"1998-11-20","SITE":"TTMTR","DECAY_DATE":null,"FILE":"2167700","GP_ID":"113302340","TLE_LINE0":"0 UPSAT","TLE_LINE1":"1 42716U 98067LX  17227.02038771  .00011903  00000-0  16747-3 0  9999","TLE_LINE2":"2 42716  51.6394 103.7846 0005086 174.7481 185.3566 15.57116459 13800"},{"CCSDS_OMM_VERS":"2.0","COMMENT":"GENERATED VIA SPACE-TRACK.ORG API","CREATION_DATE":"2017-08-15T15:12:07","ORIGINATOR":"18 SPCS","OBJECT_NAME":"UPSAT","OBJECT_ID":"1998-067LX","CENTER_NAME":"EARTH","REF_FRAME":"TEME","TIME_SYSTEM":"UTC","MEAN_ELEMENT_THEORY":"SGP4","EPOCH":"2017-08-15T06:39:01.552320","MEAN_MOTION":"15.57122052","ECCENTRICITY":"0.00050980","INCLINATION":"51.6394","RA_OF_ASC_NODE":"102.4990","ARG_OF_PERICENTER":"175.7577","MEAN_ANOMALY":"184.3459","EPHEMERIS_TYPE":"0","CLASSIFICATION_TYPE":"U","NORAD_CAT_ID":"42716","ELEMENT_SET_NO":"999","REV_AT_EPOCH":"1384","BSTAR":"0.00015851000000","MEAN_MOTION_DOT":"0.00011241","MEAN_MOTION_DDOT":"0.0000000000000","SEMIMAJOR_AXIS":"6774.128","PERIOD":"92.478","APOAPSIS":"399.446","PERIAPSIS":"392.539","OBJECT_TYPE":"PAYLOAD","RCS_SIZE":"SMALL","COUNTRY_CODE":"GREC","LAUNCH_DATE":"1998-11-20","SITE":"TTMTR","DECAY_DATE":null,"FILE":"2167865","GP_ID":"113305952","TLE_LINE0":"0 UPSAT","TLE_LINE1":"1 42716U 98067LX  17227.27710130  .00011241  00000-0  15851-3 0  9992","TLE_LINE2":"2 42716  51.6394 102.4990 0005098 175.7577 184.3459 15.57122052 13846"},{"CCSDS_OMM_VERS":"2.0","COMMENT":"GENERATED VIA SPACE-TRACK.ORG API","CREATION_DATE":"2017-08-16T00:24:46","ORIGINATOR":"18 SPCS","OBJECT_NAME":"UPSAT","OBJECT_ID":"1998-067LX","CENTER_NAME":"EARTH","REF_FRAME":"TEME","TIME_SYSTEM":"UTC","MEAN_ELEMENT_THEORY":"SGP4","EPOCH":"2017-08-15T12:48:41.569344","MEAN_MOTION":"15.57127235","ECCENTRICITY":"0.00050740","INCLINATION":"51.6395","RA_OF_ASC_NODE":"101.2136","ARG_OF_PERICENTER":"176.6599","MEAN_ANOMALY":"183.4428","EPHEMERIS_TYPE":"0","CLASSIFICATION_TYPE":"U","NORAD_CAT_ID":"42716","ELEMENT_SET_NO":"999","REV_AT_EPOCH":"1388","BSTAR":"0.00015675000000","MEAN_MOTION_DOT":"0.00011112","MEAN_MOTION_DDOT":"0.0000000000000","SEMIMAJOR_AXIS":"6774.113","PERIOD":"92.477","APOAPSIS":"399.415","PERIAPSIS":"392.540","OBJECT_TYPE":"PAYLOAD","RCS_SIZE":"SMALL","COUNTRY_CODE":"GREC","LAUNCH_DATE":"1998-11-20","SITE":"TTMTR","DECAY_DATE":null,"FILE":"2168043","GP_ID":"113319338","TLE_LINE0":"0 UPSAT","TLE_LINE1":"1 42716U 98067LX  17227.53381446 +.00011112 +00000-0 +15675-3 0  9996","TLE_LINE2":"2 42716 051.6395 101.2136 0005074 176.6599 183.4428 15.57127235013882"},{"CCSDS_OMM_VERS":"2.0","COMMENT":"GENERATED VIA SPACE-TRACK.ORG API","CREATION_DATE":"2017-08-15T23:03:18","ORIGINATOR":"18 SPCS","OBJECT_NAME":"UPSAT","OBJECT_ID":"1998-067LX","CENTER_NAME":"EARTH","REF_FRAME":"TEME","TIME_SYSTEM":"UTC","MEAN_ELEMENT_THEORY":"SGP4","EPOCH":"2017-08-15T17:25:56.514720","MEAN_MOTION":"15.57131817","ECCENTRICITY":"0.00050540","INCLINATION":"51.6395","RA_OF_ASC_NODE":"100.2496","ARG_OF_PERICENTER":"177.4907","MEAN_ANOMALY":"182.6111","EPHEMERIS_TYPE":"0","CLASSIFICATION_TYPE":"U","NORAD_CAT_ID":"42716","ELEMENT_SET_NO":"999","REV_AT_EPOCH":"1391","BSTAR":"0.00015602000000","MEAN_MOTION_DOT":"0.00011060","MEAN_MOTION_DDOT":"0.0000000000000","SEMIMAJOR_AXIS":"6774.099","PERIOD":"92.477","APOAPSIS":"399.388","PERIAPSIS":"392.541","OBJECT_TYPE":"PAYLOAD","RCS_SIZE":"SMALL","COUNTRY_CODE":"GREC","LAUNCH_DATE":"1998-11-20","SITE":"TTMTR","DECAY_DATE":null,"FILE":"2167999","GP_ID":"113309063","TLE_LINE0":"0 UPSAT","TLE_LINE1":"1 42716U 98067LX  17227.72634855  .00011060  00000-0  15602-3 0  9994","TLE_LINE2":"2 42716  51.6395 100.2496 0005054 177.4907 182.6111 15.57131817 13915"},{"CCSDS_OMM_VERS":"2.0","COMMENT":"GENERATED VIA SPACE-TRACK.ORG API","CREATION_DATE":"2017-08-16T07:09:40","ORIGINATOR":"18 SPCS","OBJECT_NAME":"UPSAT","OBJECT_ID":"1998-067LX","CENTER_NAME":"EARTH","REF_FRAME":"TEME","TIME_SYSTEM":"UTC","MEAN_ELEMENT_THEORY":"SGP4","EPOCH":"2017-08-16T01:08:01.314816","MEAN_MOTION":"15.57139311","ECCENTRICITY":"0.00050620","INCLINATION":"51.6396","RA_OF_ASC_NODE":"98.6427","ARG_OF_PERICENTER":"178.8180","MEAN_ANOMALY":"181.2825","EPHEMERIS_TYPE":"0","CLASSIFICATION_TYPE":"U","NORAD_CAT_ID":"42716","ELEMENT_SET_NO":"999","REV_AT_EPOCH":"1396","BSTAR":"0.00016011000000","MEAN_MOTION_DOT":"0.00011367","MEAN_MOTION_DDOT":"0.0000000000000","SEMIMAJOR_AXIS":"6774.078","PERIOD":"92.477","APOAPSIS":"399.372","PERIAPSIS":"392.513","OBJECT_TYPE":"PAYLOAD","RCS_SIZE":"SMALL","COUNTRY_CODE":"GREC","LAUNCH_DATE":"1998-11-20","SITE":"TTMTR","DECAY_DATE":null,"FILE":"2168135","GP_ID":"113327991","TLE_LINE0":"0 UPSAT","TLE_LINE1":"1 42716U 98067LX  17228.04723744  .00011367  00000-0  16011-3 0  9991","TLE_LINE2":"2 42716  51.6396  98.6427 0005062 178.8180 181.2825 15.57139311 13966"},{"CCSDS_OMM_VERS":"2.0","COMMENT":"GENERATED VIA SPACE-TRACK.ORG API","CREATION_DATE":"2017-08-16T15:07:33","ORIGINATOR":"18 SPCS","OBJECT_NAME":"UPSAT","OBJECT_ID":"1998-067LX","CENTER_NAME":"EARTH","REF_FRAME":"TEME","TIME_SYSTEM":"UTC","MEAN_ELEMENT_THEORY":"SGP4","EPOCH":"2017-08-16T11:54:55.841760","MEAN_MOTION":"15.57148512","ECCENTRICITY":"0.00050530","INCLINATION":"51.6397","RA_OF_ASC_NODE":"96.3931","ARG_OF_PERICENTER":"180.5172","MEAN_ANOMALY":"179.5816","EPHEMERIS_TYPE":"0","CLASSIFICATION_TYPE":"U","NORAD_CAT_ID":"42716","ELEMENT_SET_NO":"999","REV_AT_EPOCH":"1403","BSTAR":"0.00015394000000","MEAN_MOTION_DOT":"0.00010913","MEAN_MOTION_DDOT":"0.0000000000000","SEMIMAJOR_AXIS":"6774.051","PERIOD":"92.476","APOAPSIS":"399.339","PERIAPSIS":"392.493","OBJECT_TYPE":"PAYLOAD","RCS_SIZE":"SMALL","COUNTRY_CODE":"GREC","LAUNCH_DATE":"1998-11-20","SITE":"TTMTR","DECAY_DATE":null,"FILE":"2168279","GP_ID":"113331305","TLE_LINE0":"0 UPSAT","TLE_LINE1":"1 42716U 98067LX  17228.49647965  .00010913  00000-0  15394-3 0  9999","TLE_LINE2":"2 42716  51.6397  96.3931 0005053 180.5172 179.5816 15.57148512 14035"},{"CCSDS_OMM_VERS":"2.0","COMMENT":"GENERATED VIA SPACE-TRACK.ORG API","CREATION_DATE":"2017-08-16T23:00:32","ORIGINATOR":"18 SPCS","OBJECT_NAME":"UPSAT","OBJECT_ID":"1998-067LX","CENTER_NAME":"EARTH","REF_FRAME":"TEME","TIME_SYSTEM":"UTC","MEAN_ELEMENT_THEORY":"SGP4","EPOCH":"2017-08-16T14:59:45.668832","MEAN_MOTION":"15.57151412","ECCENTRICITY":"0.00050580","INCLINATION":"51.6397","RA_OF_ASC_NODE":"95.7503","ARG_OF_PERICENTER":"181.0461","MEAN_ANOMALY":"179.0522","EPHEMERIS_TYPE":"0","CLASSIFICATION_TYPE":"U","NORAD_CAT_ID":"42716","ELEMENT_SET_NO":"999","REV_AT_EPOCH":"1405","BSTAR":"0.00015566000000","MEAN_MOTION_DOT":"0.00011042","MEAN_MOTION_DDOT":"0.0000000000000","SEMIMAJOR_AXIS":"6774.042","PERIOD":"92.476","APOAPSIS":"399.334","PERIAPSIS":"392.481","OBJECT_TYPE":"PAYLOAD","RCS_SIZE":"SMALL","COUNTRY_CODE":"GREC","LAUNCH_DATE":"1998-11-20","SITE":"TTMTR","DECAY_DATE":null,"FILE":"2168420","GP_ID":"113334237","TLE_LINE0":"0 UPSAT","TLE_LINE1":"1 42716U 98067LX  17228.62483413  .00011042  00000-0  15566-3 0  9995","TLE_LINE2":"2 42716  51.6397  95.7503 0005058 181.0461 179.0522 15.57151412 14059"},{"CCSDS_OMM_VERS":"2.0","COMMENT":"GENERATED VIA SPACE-TRACK.ORG API","CREATION_DATE":"2017-08-17T07:12:41","ORIGINATOR":"18 SPCS","OBJECT_NAME":"UPSAT","OBJECT_ID":"1998-067LX","CENTER_NAME":"EARTH","REF_FRAME":"TEME","TIME_SYSTEM":"UTC","MEAN_ELEMENT_THEORY":"SGP4","EPOCH":"2017-08-17T00:14:15.016992","MEAN_MOTION":"15.57160534","ECCENTRICITY":"0.00050290","INCLINATION":"51.6398","RA_OF_ASC_NODE":"93.8222","ARG_OF_PERICENTER":"182.6259","MEAN_ANOMALY":"177.4708","EPHEMERIS_TYPE":"0","CLASSIFICATION_TYPE":"U","NORAD_CAT_ID":"42716","ELEMENT_SET_NO":"999","REV_AT_EPOCH":"1411","BSTAR":"0.00016676000000","MEAN_MOTION_DOT":"0.00011870","MEAN_MOTION_DDOT":"0.0000000000000","SEMIMAJOR_AXIS":"6774.016","PERIOD":"92.476","APOAPSIS":"399.288","PERIAPSIS":"392.474","OBJECT_TYPE":"PAYLOAD","RCS_SIZE":"SMALL","COUNTRY_CODE":"GREC","LAUNCH_DATE":"1998-11-20","SITE":"TTMTR","DECAY_DATE":null,"FILE":"2168556","GP_ID":"113346808","TLE_LINE0":"0 UPSAT","TLE_LINE1":"1 42716U 98067LX  17229.00989603  .00011870  00000-0  16676-3 0  9992","TLE_LINE2":"2 42716  51.6398  93.8222 0005029 182.6259 177.4708 15.57160534 14117"}]